STARLINK-2022           
1 47643U 21012Z   23282.53757706  .00037877  00000+0  25443-2 0  9998
2 47643  53.0542  51.7524 0001844  82.2215 277.8984 15.06454900147300
